{
  "type": "FeatureCollection",
  "features": [
    {
      "type": "Feature",
      "properties": {
        "norad_id": 34845,
        "name": "COSMOS 2251 DEB",
        "group": "cosmos-2251-debris",
        "lat": -69.59081495202582,
        "lon": 35.652785243302695,
        "alt_km": 740.9446385941974,
        "timestamp": "2025-12-03T15:48:03.461493+00:00",
        "meta_object_name": "COSMOS 2251 DEB",
        "meta_object_id": "1993-036ABP",
        "meta_epoch": "2025-11-28T06:44:43.474272",
        "meta_mean_motion": 14.45815545,
        "meta_eccentricity": 0.00217969,
        "meta_inclination": 74.024,
        "meta_ra_of_asc_node": 175.3373,
        "meta_arg_of_pericenter": 338.6212,
        "meta_mean_anomaly": 21.4033,
        "meta_ephemeris_type": 0,
        "meta_classification_type": "U",
        "meta_norad_cat_id": 34845,
        "meta_element_set_no": 999,
        "meta_rev_at_epoch": 87257,
        "meta_bstar": 0.00025523358,
        "meta_mean_motion_dot": 8.81e-06,
        "meta_mean_motion_ddot": 0,
        "tle_line1": "1 34845U 93036ABP 25332.28105873  .00000881  00000+0  25523-3 0  9990",
        "tle_line2": "2 34845  74.0240 175.3373 0021796 338.6212  21.4033 14.45815545872576"
      },
      "geometry": {
        "type": "Point",
        "coordinates": [
          35.652785243302695,
          -69.59081495202582
        ]
      }
    },
    {
      "type": "Feature",
      "properties": {
        "norad_id": 34846,
        "name": "COSMOS 2251 DEB",
        "group": "cosmos-2251-debris",
        "lat": 25.38234355740842,
        "lon": 90.9483086226053,
        "alt_km": 751.8981852789266,
        "timestamp": "2025-12-03T15:48:03.461502+00:00",
        "meta_object_name": "COSMOS 2251 DEB",
        "meta_object_id": "1993-036ABQ",
        "meta_epoch": "2025-12-03T06:47:55.152672",
        "meta_mean_motion": 14.47107786,
        "meta_eccentricity": 0.00258889,
        "meta_inclination": 74.0309,
        "meta_ra_of_asc_node": 279.4577,
        "meta_arg_of_pericenter": 347.1109,
        "meta_mean_anomaly": 12.9384,
        "meta_ephemeris_type": 0,
        "meta_classification_type": "U",
        "meta_norad_cat_id": 34846,
        "meta_element_set_no": 999,
        "meta_rev_at_epoch": 87267,
        "meta_bstar": 0.0014206046,
        "meta_mean_motion_dot": 5.177e-05,
        "meta_mean_motion_ddot": 0,
        "tle_line1": "1 34846U 93036ABQ 25337.28327723  .00005177  00000+0  14206-2 0  9994",
        "tle_line2": "2 34846  74.0309 279.4577 0025888 347.1109  12.9384 14.47107786872679"
      },
      "geometry": {
        "type": "Point",
        "coordinates": [
          90.9483086226053,
          25.38234355740842
        ]
      }
    },
    {
      "type": "Feature",
      "properties": {
        "norad_id": 34852,
        "name": "COSMOS 2251 DEB",
        "group": "cosmos-2251-debris",
        "lat": -11.261866365044705,
        "lon": 102.9425655369965,
        "alt_km": 783.3405119122899,
        "timestamp": "2025-12-03T15:48:03.461511+00:00",
        "meta_object_name": "COSMOS 2251 DEB",
        "meta_object_id": "1993-036ABW",
        "meta_epoch": "2025-12-02T05:29:46.536576",
        "meta_mean_motion": 14.36991388,
        "meta_eccentricity": 0.0015746,
        "meta_inclination": 74.0326,
        "meta_ra_of_asc_node": 282.3019,
        "meta_arg_of_pericenter": 28.2884,
        "meta_mean_anomaly": 331.9121,
        "meta_ephemeris_type": 0,
        "meta_classification_type": "U",
        "meta_norad_cat_id": 34852,
        "meta_element_set_no": 999,
        "meta_rev_at_epoch": 87383,
        "meta_bstar": 0.00017468,
        "meta_mean_motion_dot": 4.92e-06,
        "meta_mean_motion_ddot": 0,
        "tle_line1": "1 34852U 93036ABW 25336.22901084  .00000492  00000+0  17468-3 0  9991",
        "tle_line2": "2 34852  74.0326 282.3019 0015746  28.2884 331.9121 14.36991388873837"
      },
      "geometry": {
        "type": "Point",
        "coordinates": [
          102.9425655369965,
          -11.261866365044705
        ]
      }
    },
    {
      "type": "Feature",
      "properties": {
        "norad_id": 34854,
        "name": "COSMOS 2251 DEB",
        "group": "cosmos-2251-debris",
        "lat": -58.577954316499955,
        "lon": 24.337950098032803,
        "alt_km": 615.4937068635472,
        "timestamp": "2025-12-03T15:48:03.461520+00:00",
        "meta_object_name": "COSMOS 2251 DEB",
        "meta_object_id": "1993-036ABY",
        "meta_epoch": "2025-12-01T22:02:46.134528",
        "meta_mean_motion": 14.76470003,
        "meta_eccentricity": 0.00662316,
        "meta_inclination": 74.0289,
        "meta_ra_of_asc_node": 179.791,
        "meta_arg_of_pericenter": 293.6475,
        "meta_mean_anomaly": 65.7756,
        "meta_ephemeris_type": 0,
        "meta_classification_type": "U",
        "meta_norad_cat_id": 34854,
        "meta_element_set_no": 999,
        "meta_rev_at_epoch": 71722,
        "meta_bstar": 0.00065989077,
        "meta_mean_motion_dot": 4.729e-05,
        "meta_mean_motion_ddot": 0,
        "tle_line1": "1 34854U 93036ABY 25335.91858952  .00004729  00000+0  65989-3 0  9991",
        "tle_line2": "2 34854  74.0289 179.7910 0066231 293.6475  65.7756 14.76470003717221"
      },
      "geometry": {
        "type": "Point",
        "coordinates": [
          24.337950098032803,
          -58.577954316499955
        ]
      }
    },
    {
      "type": "Feature",
      "properties": {
        "norad_id": 34856,
        "name": "COSMOS 2251 DEB",
        "group": "cosmos-2251-debris",
        "lat": 73.4299424336399,
        "lon": 178.22387379623933,
        "alt_km": 565.309809974854,
        "timestamp": "2025-12-03T15:48:03.461529+00:00",
        "meta_object_name": "COSMOS 2251 DEB",
        "meta_object_id": "1993-036ACA",
        "meta_epoch": "2025-12-02T11:02:06.604224",
        "meta_mean_motion": 15.05140167,
        "meta_eccentricity": 0.00347835,
        "meta_inclination": 73.9965,
        "meta_ra_of_asc_node": 105.9765,
        "meta_arg_of_pericenter": 243.8774,
        "meta_mean_anomaly": 190.0896,
        "meta_ephemeris_type": 0,
        "meta_classification_type": "U",
        "meta_norad_cat_id": 34856,
        "meta_element_set_no": 999,
        "meta_rev_at_epoch": 88957,
        "meta_bstar": 0.0024540063,
        "meta_mean_motion_dot": 0.00035572,
        "meta_mean_motion_ddot": 0,
        "tle_line1": "1 34856U 93036ACA 25336.45979866  .00035572  00000+0  24540-2 0  9998",
        "tle_line2": "2 34856  73.9965 105.9765 0034783 243.8774 190.0896 15.05140167889570"
      },
      "geometry": {
        "type": "Point",
        "coordinates": [
          178.22387379623933,
          73.4299424336399
        ]
      }
    },
    {
      "type": "Feature",
      "properties": {
        "norad_id": 34857,
        "name": "COSMOS 2251 DEB",
        "group": "cosmos-2251-debris",
        "lat": -5.505743207789238,
        "lon": -54.26812724810113,
        "alt_km": 680.2191363196407,
        "timestamp": "2025-12-03T15:48:03.461538+00:00",
        "meta_object_name": "COSMOS 2251 DEB",
        "meta_object_id": "1993-036ACB",
        "meta_epoch": "2025-12-03T05:21:47.130624",
        "meta_mean_motion": 14.58720007,
        "meta_eccentricity": 0.00662125,
        "meta_inclination": 74.0143,
        "meta_ra_of_asc_node": 124.9775,
        "meta_arg_of_pericenter": 251.0833,
        "meta_mean_anomaly": 172.253,
        "meta_ephemeris_type": 0,
        "meta_classification_type": "U",
        "meta_norad_cat_id": 34857,
        "meta_element_set_no": 999,
        "meta_rev_at_epoch": 87762,
        "meta_bstar": 0.0016310278,
        "meta_mean_motion_dot": 7.824e-05,
        "meta_mean_motion_ddot": 0,
        "tle_line1": "1 34857U 93036ACB 25337.22346216  .00007824  00000+0  16310-2 0  9997",
        "tle_line2": "2 34857  74.0143 124.9775 0066212 251.0833 172.2530 14.58720007877626"
      },
      "geometry": {
        "type": "Point",
        "coordinates": [
          -54.26812724810113,
          -5.505743207789238
        ]
      }
    },
    {
      "type": "Feature",
      "properties": {
        "norad_id": 34859,
        "name": "COSMOS 2251 DEB",
        "group": "cosmos-2251-debris",
        "lat": 28.71196078959716,
        "lon": 169.49460490544251,
        "alt_km": 530.6428322075526,
        "timestamp": "2025-12-03T15:48:03.461547+00:00",
        "meta_object_name": "COSMOS 2251 DEB",
        "meta_object_id": "1993-036ACD",
        "meta_epoch": "2025-12-03T02:43:55.274880",
        "meta_mean_motion": 15.12200295,
        "meta_eccentricity": 0.00046516,
        "meta_inclination": 74.035,
        "meta_ra_of_asc_node": 359.644,
        "meta_arg_of_pericenter": 317.5111,
        "meta_mean_anomaly": 109.1572,
        "meta_ephemeris_type": 0,
        "meta_classification_type": "U",
        "meta_norad_cat_id": 34859,
        "meta_element_set_no": 999,
        "meta_rev_at_epoch": 88213,
        "meta_bstar": 0.006215805,
        "meta_mean_motion_dot": 0.00108986,
        "meta_mean_motion_ddot": 0,
        "tle_line1": "1 34859U 93036ACD 25337.11383420  .00108986  00000+0  62158-2 0  9997",
        "tle_line2": "2 34859  74.0350 359.6440 0004651 317.5111 109.1572 15.12200295882130"
      },
      "geometry": {
        "type": "Point",
        "coordinates": [
          169.49460490544251,
          28.71196078959716
        ]
      }
    }
  ]
}